start=new Date('2023-01-12T00:00:00.000Z').valueOf();
sats=[{"PERIOD":"96.106","EPOCH":"2023-01-11T19:35:43.768320","MEAN_ELEMENT_THEORY":"SGP4","FILE":"3740419","TLE_LINE1":"1 49168U 21082AQ  23011.81647880  .00002543  00000-0  22073-3 0  9991","OBJECT_ID":"2021-082AQ","ECCENTRICITY":"0.00021730","RA_OF_ASC_NODE":"301.2498","DECAY_DATE":null,"LAUNCH_DATE":"2021-09-14","MEAN_MOTION":"14.98343942","PERIAPSIS":"570.505","REF_FRAME":"TEME","OBJECT_TYPE":"PAYLOAD","RCS_SIZE":"LARGE","TIME_SYSTEM":"UTC","BSTAR":"0.00022073000000","MEAN_ANOMALY":"96.0941","CLASSIFICATION_TYPE":"U","NORAD_CAT_ID":"49168","MEAN_MOTION_DOT":"0.00002543","REV_AT_EPOCH":"7498","EPHEMERIS_TYPE":"0","MEAN_MOTION_DDOT":"0.0000000000000","INCLINATION":"70.0049","SITE":"AFWTR","TLE_LINE2":"2 49168  70.0049 301.2498 0002173 263.9971  96.0941 14.98343942 74981","COUNTRY_CODE":"US","APOAPSIS":"573.525","CENTER_NAME":"EARTH","ARG_OF_PERICENTER":"263.9971","GP_ID":"222824381","ELEMENT_SET_NO":"999","SEMIMAJOR_AXIS":"6950.150","OBJECT_NAME":"STARLINK-3101"},{"OBJECT_NAME":"STARLINK-3046","GP_ID":"222822633","ELEMENT_SET_NO":"999","SEMIMAJOR_AXIS":"6950.161","COUNTRY_CODE":"US","ARG_OF_PERICENTER":"257.4955","CENTER_NAME":"EARTH","APOAPSIS":"574.321","TLE_LINE2":"2 49169  70.0021 301.2426 0003301 257.4955 102.5835 14.98340225 73780","SITE":"AFWTR","MEAN_MOTION_DDOT":"0.0000000000000","INCLINATION":"70.0021","REV_AT_EPOCH":"7378","MEAN_MOTION_DOT":"0.00002763","NORAD_CAT_ID":"49169","EPHEMERIS_TYPE":"0","CLASSIFICATION_TYPE":"U","TIME_SYSTEM":"UTC","BSTAR":"0.00023921000000","MEAN_ANOMALY":"102.5835","RCS_SIZE":"LARGE","OBJECT_TYPE":"PAYLOAD","MEAN_MOTION":"14.98340225","LAUNCH_DATE":"2021-09-14","PERIAPSIS":"569.732","REF_FRAME":"TEME","RA_OF_ASC_NODE":"301.2426","DECAY_DATE":null,"OBJECT_ID":"2021-082AR","TLE_LINE1":"1 49169U 21082AR  23011.82124526  .00002763  00000-0  23921-3 0  9997","ECCENTRICITY":"0.00033010","MEAN_ELEMENT_THEORY":"SGP4","FILE":"3740419","EPOCH":"2023-01-11T19:42:35.590464","PERIOD":"96.106"},{"CLASSIFICATION_TYPE":"U","BSTAR":"0.00016191000000","TIME_SYSTEM":"UTC","MEAN_ANOMALY":"96.0380","RCS_SIZE":"LARGE","OBJECT_TYPE":"PAYLOAD","LAUNCH_DATE":"2021-09-14","MEAN_MOTION":"14.98343645","PERIAPSIS":"570.014","REF_FRAME":"TEME","DECAY_DATE":null,"RA_OF_ASC_NODE":"321.9018","ECCENTRICITY":"0.00028800","TLE_LINE1":"1 49170U 21082AS  23011.56036484  .00001840  00000-0  16191-3 0  9991","OBJECT_ID":"2021-082AS","FILE":"3740261","MEAN_ELEMENT_THEORY":"SGP4","EPOCH":"2023-01-11T13:26:55.522176","PERIOD":"96.106","OBJECT_NAME":"STARLINK-3074","SEMIMAJOR_AXIS":"6950.151","ELEMENT_SET_NO":"999","GP_ID":"222798607","CENTER_NAME":"EARTH","ARG_OF_PERICENTER":"264.0450","APOAPSIS":"574.017","COUNTRY_CODE":"US","TLE_LINE2":"2 49170  70.0021 321.9018 0002880 264.0450  96.0380 14.98343645 73256","SITE":"AFWTR","MEAN_MOTION_DDOT":"0.0000000000000","INCLINATION":"70.0021","EPHEMERIS_TYPE":"0","MEAN_MOTION_DOT":"0.00001840","REV_AT_EPOCH":"7325","NORAD_CAT_ID":"49170"},{"RCS_SIZE":"LARGE","CLASSIFICATION_TYPE":"U","BSTAR":"0.00031548000000","MEAN_ANOMALY":"90.3900","TIME_SYSTEM":"UTC","LAUNCH_DATE":"2021-09-14","PERIAPSIS":"569.919","MEAN_MOTION":"14.98338901","REF_FRAME":"TEME","OBJECT_TYPE":"PAYLOAD","ECCENTRICITY":"0.00030380","TLE_LINE1":"1 49171U 21082AT  23011.84648201  .00003674  00000-0  31548-3 0  9999","OBJECT_ID":"2021-082AT","DECAY_DATE":null,"RA_OF_ASC_NODE":"321.1657","EPOCH":"2023-01-11T20:18:56.045664","PERIOD":"96.106","FILE":"3740419","MEAN_ELEMENT_THEORY":"SGP4","SEMIMAJOR_AXIS":"6950.165","ELEMENT_SET_NO":"999","GP_ID":"222824135","OBJECT_NAME":"STARLINK-3107","ARG_OF_PERICENTER":"269.6911","CENTER_NAME":"EARTH","APOAPSIS":"574.142","COUNTRY_CODE":"US","SITE":"AFWTR","INCLINATION":"70.0004","MEAN_MOTION_DDOT":"0.0000000000000","TLE_LINE2":"2 49171  70.0004 321.1657 0003038 269.6911  90.3900 14.98338901 74455","EPHEMERIS_TYPE":"0","MEAN_MOTION_DOT":"0.00003674","REV_AT_EPOCH":"7445","NORAD_CAT_ID":"49171"},{"EPHEMERIS_TYPE":"0","MEAN_MOTION_DOT":"0.00002219","REV_AT_EPOCH":"7378","NORAD_CAT_ID":"49172","TLE_LINE2":"2 49172  70.0009 301.1502 0003396 278.6368  81.4406 14.98340258 73786","SITE":"AFWTR","INCLINATION":"70.0009","MEAN_MOTION_DDOT":"0.0000000000000","CENTER_NAME":"EARTH","ARG_OF_PERICENTER":"278.6368","APOAPSIS":"574.386","COUNTRY_CODE":"US","OBJECT_NAME":"STARLINK-3091","SEMIMAJOR_AXIS":"6950.161","ELEMENT_SET_NO":"999","GP_ID":"222823881","FILE":"3740419","MEAN_ELEMENT_THEORY":"SGP4","EPOCH":"2023-01-11T20:34:34.237344","PERIOD":"96.106","DECAY_DATE":null,"RA_OF_ASC_NODE":"301.1502","ECCENTRICITY":"0.00033960","OBJECT_ID":"2021-082AU","TLE_LINE1":"1 49172U 21082AU  23011.85734071  .00002219  00000-0  19365-3 0  9999","OBJECT_TYPE":"PAYLOAD","LAUNCH_DATE":"2021-09-14","MEAN_MOTION":"14.98340258","PERIAPSIS":"569.666","REF_FRAME":"TEME","CLASSIFICATION_TYPE":"U","BSTAR":"0.00019365000000","MEAN_ANOMALY":"81.4406","TIME_SYSTEM":"UTC","RCS_SIZE":"LARGE"},{"OBJECT_ID":"2021-082AV","TLE_LINE1":"1 49173U 21082AV  23011.74496320 -.00027434  00000-0 -22933-2 0  9992","ECCENTRICITY":"0.00029560","RA_OF_ASC_NODE":"301.4387","DECAY_DATE":null,"PERIOD":"96.099","EPOCH":"2023-01-11T17:52:44.820480","MEAN_ELEMENT_THEORY":"SGP4","FILE":"3740419","RCS_SIZE":"LARGE","BSTAR":"-0.00229330000000","MEAN_ANOMALY":"90.0888","TIME_SYSTEM":"UTC","CLASSIFICATION_TYPE":"U","PERIAPSIS":"569.632","LAUNCH_DATE":"2021-09-14","REF_FRAME":"TEME","MEAN_MOTION":"14.98450086","OBJECT_TYPE":"PAYLOAD","MEAN_MOTION_DDOT":"0.0000000000000","INCLINATION":"70.0043","SITE":"AFWTR","TLE_LINE2":"2 49173  70.0043 301.4387 0002956 269.9932  90.0888 14.98450086 73770","NORAD_CAT_ID":"49173","MEAN_MOTION_DOT":"-0.00027434","REV_AT_EPOCH":"7377","EPHEMERIS_TYPE":"0","GP_ID":"222823134","ELEMENT_SET_NO":"999","SEMIMAJOR_AXIS":"6949.822","OBJECT_NAME":"STARLINK-3045","COUNTRY_CODE":"US","APOAPSIS":"573.741","ARG_OF_PERICENTER":"269.9932","CENTER_NAME":"EARTH"},{"RCS_SIZE":"LARGE","BSTAR":"0.00106380000000","TIME_SYSTEM":"UTC","MEAN_ANOMALY":"86.7131","CLASSIFICATION_TYPE":"U","LAUNCH_DATE":"2021-09-14","MEAN_MOTION":"14.98678379","PERIAPSIS":"567.558","REF_FRAME":"TEME","OBJECT_TYPE":"PAYLOAD","ECCENTRICITY":"0.00049250","TLE_LINE1":"1 49174U 21082AW  23011.78117449  .00012740  00000-0  10638-2 0  9990","OBJECT_ID":"2021-082AW","DECAY_DATE":null,"RA_OF_ASC_NODE":"301.5443","PERIOD":"96.085","EPOCH":"2023-01-11T18:44:53.475936","FILE":"3740419","MEAN_ELEMENT_THEORY":"SGP4","SEMIMAJOR_AXIS":"6949.116","ELEMENT_SET_NO":"999","GP_ID":"222822883","OBJECT_NAME":"STARLINK-3047","APOAPSIS":"574.403","ARG_OF_PERICENTER":"273.3464","CENTER_NAME":"EARTH","COUNTRY_CODE":"US","INCLINATION":"70.0011","MEAN_MOTION_DDOT":"0.0000000000000","SITE":"AFWTR","TLE_LINE2":"2 49174  70.0011 301.5443 0004925 273.3464  86.7131 14.98678379 74947","EPHEMERIS_TYPE":"0","NORAD_CAT_ID":"49174","REV_AT_EPOCH":"7494","MEAN_MOTION_DOT":"0.00012740"},{"FILE":"3740419","MEAN_ELEMENT_THEORY":"SGP4","PERIOD":"96.107","EPOCH":"2023-01-11T18:31:00.287040","DECAY_DATE":null,"RA_OF_ASC_NODE":"301.3724","ECCENTRICITY":"0.00025910","OBJECT_ID":"2021-082AX","TLE_LINE1":"1 49175U 21082AX  23011.77153110  .00001370  00000-0  12260-3 0  9996","OBJECT_TYPE":"PAYLOAD","LAUNCH_DATE":"2021-09-14","MEAN_MOTION":"14.98330052","PERIAPSIS":"570.257","REF_FRAME":"TEME","MEAN_ANOMALY":"91.0305","BSTAR":"0.00012260000000","TIME_SYSTEM":"UTC","CLASSIFICATION_TYPE":"U","RCS_SIZE":"LARGE","EPHEMERIS_TYPE":"0","NORAD_CAT_ID":"49175","REV_AT_EPOCH":"7377","MEAN_MOTION_DOT":"0.00001370","TLE_LINE2":"2 49175  70.0030 301.3724 0002591 269.0558  91.0305 14.98330052 73777","INCLINATION":"70.0030","MEAN_MOTION_DDOT":"0.0000000000000","SITE":"AFWTR","APOAPSIS":"573.859","CENTER_NAME":"EARTH","ARG_OF_PERICENTER":"269.0558","COUNTRY_CODE":"US","OBJECT_NAME":"STARLINK-3087","SEMIMAJOR_AXIS":"6950.193","GP_ID":"222823635","ELEMENT_SET_NO":"999"},{"PERIOD":"96.107","EPOCH":"2023-01-11T16:39:06.711552","FILE":"3740419","MEAN_ELEMENT_THEORY":"SGP4","ECCENTRICITY":"0.00032700","TLE_LINE1":"1 49176U 21082AY  23011.69382768 -.00003313  00000-0 -27001-3 0  9991","OBJECT_ID":"2021-082AY","DECAY_DATE":null,"RA_OF_ASC_NODE":"281.5759","REF_FRAME":"TEME","LAUNCH_DATE":"2021-09-14","PERIAPSIS":"569.809","MEAN_MOTION":"14.98322340","OBJECT_TYPE":"PAYLOAD","RCS_SIZE":"LARGE","TIME_SYSTEM":"UTC","BSTAR":"-0.00027001000000","MEAN_ANOMALY":"72.3922","CLASSIFICATION_TYPE":"U","EPHEMERIS_TYPE":"0","NORAD_CAT_ID":"49176","REV_AT_EPOCH":"7425","MEAN_MOTION_DOT":"-0.00003313","INCLINATION":"70.0014","MEAN_MOTION_DDOT":"0.0000000000000","SITE":"AFWTR","TLE_LINE2":"2 49176  70.0014 281.5759 0003270 287.6879  72.3922 14.98322340 74256","APOAPSIS":"574.354","CENTER_NAME":"EARTH","ARG_OF_PERICENTER":"287.6879","COUNTRY_CODE":"US","SEMIMAJOR_AXIS":"6950.217","ELEMENT_SET_NO":"999","GP_ID":"222824382","OBJECT_NAME":"STARLINK-3069"},{"CLASSIFICATION_TYPE":"U","MEAN_ANOMALY":"84.7638","BSTAR":"-0.00014790000000","TIME_SYSTEM":"UTC","RCS_SIZE":"LARGE","OBJECT_TYPE":"PAYLOAD","LAUNCH_DATE":"2021-09-14","REF_FRAME":"TEME","PERIAPSIS":"569.887","MEAN_MOTION":"14.98313186","DECAY_DATE":null,"RA_OF_ASC_NODE":"281.1877","ECCENTRICITY":"0.00031980","OBJECT_ID":"2021-082AZ","TLE_LINE1":"1 49177U 21082AZ  23011.84643863 -.00001857  00000-0 -14790-3 0  9997","FILE":"3740419","MEAN_ELEMENT_THEORY":"SGP4","EPOCH":"2023-01-11T20:18:52.297632","PERIOD":"96.108","OBJECT_NAME":"STARLINK-3103","SEMIMAJOR_AXIS":"6950.245","ELEMENT_SET_NO":"999","GP_ID":"222822634","ARG_OF_PERICENTER":"275.3156","CENTER_NAME":"EARTH","APOAPSIS":"574.333","COUNTRY_CODE":"US","TLE_LINE2":"2 49177  69.9993 281.1877 0003198 275.3156  84.7638 14.98313186 75472","SITE":"AFWTR","INCLINATION":"69.9993","MEAN_MOTION_DDOT":"0.0000000000000","EPHEMERIS_TYPE":"0","REV_AT_EPOCH":"7547","MEAN_MOTION_DOT":"-0.00001857","NORAD_CAT_ID":"49177"}];
